[{"OBJECT_NAME":"ONEWEB-0270","OBJECT_ID":"2021-060X","EPOCH":"2026-03-09T22:21:20.551104","MEAN_MOTION":13.16593502,"ECCENTRICITY":0.00019648,"INCLINATION":87.9002,"RA_OF_ASC_NODE":248.5241,"ARG_OF_PERICENTER":102.1216,"MEAN_ANOMALY":258.0136,"EPHEMERIS_TYPE":0,"CLASSIFICATION_TYPE":"U","NORAD_CAT_ID":48988,"ELEMENT_SET_NO":999,"REV_AT_EPOCH":22660,"BSTAR":0.00010760647,"MEAN_MOTION_DOT":5.4e-7,"MEAN_MOTION_DDOT":0},{"OBJECT_NAME":"THORAD DELTA 1 DEB","OBJECT_ID":"1974-089AK","EPOCH":"2026-03-09T22:01:28.708896","MEAN_MOTION":12.94022955,"ECCENTRICITY":0.01292085,"INCLINATION":102.513,"RA_OF_ASC_NODE":47.4062,"ARG_OF_PERICENTER":347.4889,"MEAN_ANOMALY":69.3089,"EPHEMERIS_TYPE":0,"CLASSIFICATION_TYPE":"U","NORAD_CAT_ID":8169,"ELEMENT_SET_NO":999,"REV_AT_EPOCH":38793,"BSTAR":0.0053228645,"MEAN_MOTION_DOT":1.474e-5,"MEAN_MOTION_DDOT":0}]
